OBJECT_NAME,OBJECT_ID,EPOCH,MEAN_MOTION,ECCENTRICITY,INCLINATION,RA_OF_ASC_NODE,ARG_OF_PERICENTER,MEAN_ANOMALY,EPHEMERIS_TYPE,CLASSIFICATION_TYPE,NORAD_CAT_ID,ELEMENT_SET_NO,REV_AT_EPOCH,BSTAR,MEAN_MOTION_DOT,MEAN_MOTION_DDOT
GLOBALSTAR M069,2007-020C,2026-06-07T14:55:23.138976,12.23470931,.00025263,52.0043,279.2001,128.3228,245.2231,0,U,31573,999,87763,.23762468E-3,-.67E-6,0
GLOBALSTAR M072,2007-020D,2026-06-08T01:56:08.492640,11.91658483,.00013731,51.9909,124.4888,306.8467,133.3638,0,U,31574,999,87389,.20806068E-3,-.69E-6,0
GLOBALSTAR M066,2007-048C,2026-06-07T23:34:01.669728,12.30388743,.00053137,51.9587,84.3367,24.4172,56.6252,0,U,32265,999,85909,-.21077694E-3,-.119E-5,0
GLOBALSTAR M079,2010-054A,2026-06-08T02:42:56.997216,12.62265970,.00004878,52.0016,136.2918,0.5369,78.3475,0,U,37188,999,72140,.63574091E-4,-.92E-6,0
GLOBALSTAR M074,2010-054B,2026-06-08T04:54:05.892768,12.62268412,.00003432,51.9993,135.2810,45.3805,327.7188,0,U,37189,999,72202,.38126856E-4,-.97E-6,0
GLOBALSTAR M076,2010-054C,2026-06-08T06:00:37.451808,12.62261826,.00005397,52.0006,135.3424,31.9161,71.5071,0,U,37190,999,72174,.50742259E-4,-.95E-6,0
GLOBALSTAR M077,2010-054D,2026-06-07T21:39:29.634048,11.67547620,.00028805,51.9933,202.8631,155.8900,14.9562,0,U,37191,999,72005,-.59370241E-4,-.81E-6,0
GLOBALSTAR M075,2010-054E,2026-06-08T06:12:35.320896,12.62267316,.00000544,51.9920,177.3786,155.0599,285.8467,0,U,37192,999,72081,-.188326E-6,-.104E-5,0
GLOBALSTAR M073,2010-054F,2026-06-07T13:35:14.934912,12.62262154,.00007309,52.0058,93.5780,28.4102,142.3845,0,U,37193,999,72271,.64891041E-4,-.92E-6,0
GLOBALSTAR M083,2011-033A,2026-06-07T22:34:23.871648,12.62262882,.00008267,51.9872,40.6801,54.4926,319.9022,0,U,37739,999,69178,.13845167E-4,-.101E-5,0
GLOBALSTAR M088,2011-033B,2026-06-08T04:28:52.752288,12.62268578,.00008428,52.0229,306.3380,112.7304,59.0579,0,U,37740,999,68735,.92800544E-4,-.87E-6,0
GLOBALSTAR M091,2011-033C,2026-06-08T00:59:35.016000,12.62263720,.00005195,52.0005,269.7587,136.2229,35.8694,0,U,37741,999,68812,.75069193E-4,-.9E-6,0
GLOBALSTAR M085,2011-033D,2026-06-08T07:46:26.321664,12.62263924,.00002008,52.0112,220.1834,181.1314,255.5798,0,U,37742,999,68867,.27830402E-4,-.99E-6,0
GLOBALSTAR M081,2011-033E,2026-06-07T21:30:20.915424,12.62264801,.00002609,51.9944,223.9326,129.5850,41.5895,0,U,37743,999,68876,.24294637E-4,-.99E-6,0
GLOBALSTAR M089,2011-033F,2026-06-08T05:34:07.910400,12.62266995,.00003707,51.9904,177.0697,103.3264,336.0423,0,U,37744,999,68965,.61663107E-4,-.93E-6,0
GLOBALSTAR M084,2011-080A,2026-06-07T23:50:19.709088,12.62267522,.00010194,52.0025,45.2714,71.9918,301.8684,0,U,38040,999,66760,.55087286E-4,-.94E-6,0
GLOBALSTAR M080,2011-080B,2026-06-07T23:08:45.345408,12.62269216,.00002776,52.0075,47.0741,67.7942,304.8050,0,U,38041,999,66772,.13975844E-4,-.101E-5,0
GLOBALSTAR M082,2011-080C,2026-06-07T20:35:29.999904,12.62269896,.00005412,52.0098,2.8982,85.6173,93.2689,0,U,38042,999,66841,.72850819E-4,-.91E-6,0
GLOBALSTAR M092,2011-080D,2026-06-08T02:42:47.113056,12.62266835,.00005302,52.0083,92.5176,51.0168,326.4525,0,U,38043,999,66690,.62523462E-4,-.93E-6,0
GLOBALSTAR M090,2011-080E,2026-06-07T20:21:15.742368,12.62268990,.00008014,52.0144,356.8814,79.5657,293.3025,0,U,38044,999,66853,.76868325E-4,-.9E-6,0
GLOBALSTAR M086,2011-080F,2026-06-08T06:08:22.000416,12.62286547,.0001634,51.9915,355.5849,51.7263,275.1283,0,U,38045,999,66852,.90199034E-4,-.88E-6,0
GLOBALSTAR M097,2013-005A,2026-06-08T01:21:27.971136,12.62247228,.00004674,52.0054,271.1305,121.7186,238.3726,0,U,39072,999,61575,.11824035E-3,-.83E-6,0
GLOBALSTAR M093,2013-005B,2026-06-07T13:18:56.159424,12.62265685,.00003368,52.0111,266.0008,107.5188,252.5716,0,U,39073,999,61564,.97186113E-4,-.86E-6,0
GLOBALSTAR M094,2013-005C,2026-06-08T04:31:01.494336,12.62268541,.000018,51.9930,178.1989,331.4267,28.6590,0,U,39074,999,61733,.35417189E-4,-.97E-6,0
GLOBALSTAR M096,2013-005D,2026-06-07T21:14:17.681568,12.62265365,.00002078,52.0063,227.9171,158.8306,201.2570,0,U,39075,999,61621,.29689341E-4,-.98E-6,0
GLOBALSTAR M078,2013-005E,2026-06-07T16:47:19.270176,12.62259561,.00005906,51.9894,312.5020,190.9080,169.1774,0,U,39076,999,61481,-.18767577E-3,-.137E-5,0
GLOBALSTAR M095,2013-005F,2026-06-08T02:56:00.484512,12.62263356,.00003866,52.0095,308.8064,121.3808,238.7096,0,U,39077,999,61472,.63135564E-4,-.92E-6,0
GLOBALSTAR M087,2022-064A,2026-06-07T23:27:05.117184,12.62268932,.00005603,51.9995,90.4912,17.7567,342.3319,0,U,52888,999,18997,.8395422E-4,-.89E-6,0
